[{"OBJECT_NAME":"STARLINK-36572","OBJECT_ID":"2026-014E","EPOCH":"2026-03-09T15:34:58.460736","MEAN_MOTION":15.75201559,"ECCENTRICITY":0.0001493,"INCLINATION":97.2839,"RA_OF_ASC_NODE":313.5273,"ARG_OF_PERICENTER":17.9555,"MEAN_ANOMALY":342.1763,"EPHEMERIS_TYPE":0,"CLASSIFICATION_TYPE":"U","NORAD_CAT_ID":67536,"ELEMENT_SET_NO":999,"REV_AT_EPOCH":856,"BSTAR":0.0011708,"MEAN_MOTION_DOT":0.00178286,"MEAN_MOTION_DDOT":0},{"OBJECT_NAME":"FENGYUN 1C DEB","OBJECT_ID":"1999-025CUZ","EPOCH":"2026-03-07T03:33:19.659744","MEAN_MOTION":15.49361115,"ECCENTRICITY":0.0121693,"INCLINATION":97.0067,"RA_OF_ASC_NODE":319.8074,"ARG_OF_PERICENTER":141.5541,"MEAN_ANOMALY":219.4462,"EPHEMERIS_TYPE":0,"CLASSIFICATION_TYPE":"U","NORAD_CAT_ID":32203,"ELEMENT_SET_NO":999,"REV_AT_EPOCH":76401,"BSTAR":0.00044112138,"MEAN_MOTION_DOT":0.00032745,"MEAN_MOTION_DDOT":0}]
